{
  "type": "FeatureCollection",
  "features": [
    {
      "type": "Feature",
      "properties": {
        "norad_id": 30313,
        "name": "FENGYUN 1C DEB",
        "group": "fengyun-1c-debris",
        "lat": 34.34598068544546,
        "lon": 56.369926474505796,
        "alt_km": 769.3970573457846,
        "timestamp": "2025-12-02T10:50:47.549547+00:00",
        "meta_object_name": "FENGYUN 1C DEB",
        "meta_object_id": "1999-025AAA",
        "meta_epoch": "2025-12-02T04:15:02.481120",
        "meta_mean_motion": 14.25320259,
        "meta_eccentricity": 0.0056338,
        "meta_inclination": 98.8765,
        "meta_ra_of_asc_node": 62.2221,
        "meta_arg_of_pericenter": 7.5047,
        "meta_mean_anomaly": 57.7185,
        "meta_ephemeris_type": 0,
        "meta_classification_type": "U",
        "meta_norad_cat_id": 30313,
        "meta_element_set_no": 999,
        "meta_rev_at_epoch": 96939,
        "meta_bstar": 0.0018126,
        "meta_mean_motion_dot": 4.297e-05,
        "meta_mean_motion_ddot": 0,
        "tle_line1": "1 30313U 99025AAA 25336.17711205  .00004297  00000+0  18126-2 0  9999",
        "tle_line2": "2 30313  98.8765  62.2221 0056338   7.5047  57.7185 14.25320259969390"
      },
      "geometry": {
        "type": "Point",
        "coordinates": [
          56.369926474505796,
          34.34598068544546
        ]
      }
    },
    {
      "type": "Feature",
      "properties": {
        "norad_id": 30314,
        "name": "FENGYUN 1C DEB",
        "group": "fengyun-1c-debris",
        "lat": -52.57345040494446,
        "lon": -22.95397102888051,
        "alt_km": 989.4547020627851,
        "timestamp": "2025-12-02T10:50:47.549557+00:00",
        "meta_object_name": "FENGYUN 1C DEB",
        "meta_object_id": "1999-025AAB",
        "meta_epoch": "2025-12-01T23:27:12.161376",
        "meta_mean_motion": 14.01135485,
        "meta_eccentricity": 0.0142754,
        "meta_inclination": 98.3813,
        "meta_ra_of_asc_node": 167.7169,
        "meta_arg_of_pericenter": 28.261,
        "meta_mean_anomaly": 332.6209,
        "meta_ephemeris_type": 0,
        "meta_classification_type": "U",
        "meta_norad_cat_id": 30314,
        "meta_element_set_no": 999,
        "meta_rev_at_epoch": 95958,
        "meta_bstar": 0.0011887,
        "meta_mean_motion_dot": 1.912e-05,
        "meta_mean_motion_ddot": 0,
        "tle_line1": "1 30314U 99025AAB 25335.97722409  .00001912  00000+0  11887-2 0  9993",
        "tle_line2": "2 30314  98.3813 167.7169 0142754  28.2610 332.6209 14.01135485959587"
      },
      "geometry": {
        "type": "Point",
        "coordinates": [
          -22.95397102888051,
          -52.57345040494446
        ]
      }
    },
    {
      "type": "Feature",
      "properties": {
        "norad_id": 30315,
        "name": "FENGYUN 1C DEB",
        "group": "fengyun-1c-debris",
        "lat": 78.60386025457677,
        "lon": -145.05745925083588,
        "alt_km": 811.363437538781,
        "timestamp": "2025-12-02T10:50:47.549567+00:00",
        "meta_object_name": "FENGYUN 1C DEB",
        "meta_object_id": "1999-025AAC",
        "meta_epoch": "2025-12-02T00:29:48.083424",
        "meta_mean_motion": 14.19040185,
        "meta_eccentricity": 0.0035806,
        "meta_inclination": 98.6024,
        "meta_ra_of_asc_node": 345.8472,
        "meta_arg_of_pericenter": 31.059,
        "meta_mean_anomaly": 24.2602,
        "meta_ephemeris_type": 0,
        "meta_classification_type": "U",
        "meta_norad_cat_id": 30315,
        "meta_element_set_no": 999,
        "meta_rev_at_epoch": 97555,
        "meta_bstar": 0.00034463,
        "meta_mean_motion_dot": 6.82e-06,
        "meta_mean_motion_ddot": 0,
        "tle_line1": "1 30315U 99025AAC 25336.02069541  .00000682  00000+0  34463-3 0  9991",
        "tle_line2": "2 30315  98.6024 345.8472 0035806  31.0590  24.2602 14.19040185975556"
      },
      "geometry": {
        "type": "Point",
        "coordinates": [
          -145.05745925083588,
          78.60386025457677
        ]
      }
    },
    {
      "type": "Feature",
      "properties": {
        "norad_id": 30316,
        "name": "FENGYUN 1C DEB",
        "group": "fengyun-1c-debris",
        "lat": -46.32923735191794,
        "lon": -110.67887545420227,
        "alt_km": 737.0439355959979,
        "timestamp": "2025-12-02T10:50:47.549577+00:00",
        "meta_object_name": "FENGYUN 1C DEB",
        "meta_object_id": "1999-025AAD",
        "meta_epoch": "2025-12-01T20:36:46.694592",
        "meta_mean_motion": 14.55730103,
        "meta_eccentricity": 0.0036506,
        "meta_inclination": 98.6487,
        "meta_ra_of_asc_node": 77.8812,
        "meta_arg_of_pericenter": 74.2293,
        "meta_mean_anomaly": 286.2924,
        "meta_ephemeris_type": 0,
        "meta_classification_type": "U",
        "meta_norad_cat_id": 30316,
        "meta_element_set_no": 999,
        "meta_rev_at_epoch": 98178,
        "meta_bstar": 0.002356,
        "meta_mean_motion_dot": 0.00010363,
        "meta_mean_motion_ddot": 0,
        "tle_line1": "1 30316U 99025AAD 25335.85887378  .00010363  00000+0  23560-2 0  9990",
        "tle_line2": "2 30316  98.6487  77.8812 0036506  74.2293 286.2924 14.55730103981782"
      },
      "geometry": {
        "type": "Point",
        "coordinates": [
          -110.67887545420227,
          -46.32923735191794
        ]
      }
    },
    {
      "type": "Feature",
      "properties": {
        "norad_id": 30317,
        "name": "FENGYUN 1C DEB",
        "group": "fengyun-1c-debris",
        "lat": 3.2483846567796553,
        "lon": 157.720128763951,
        "alt_km": 883.7385488375066,
        "timestamp": "2025-12-02T10:50:47.549587+00:00",
        "meta_object_name": "FENGYUN 1C DEB",
        "meta_object_id": "1999-025AAE",
        "meta_epoch": "2025-12-01T23:46:01.628832",
        "meta_mean_motion": 14.06938466,
        "meta_eccentricity": 0.002434,
        "meta_inclination": 98.7864,
        "meta_ra_of_asc_node": 336.7687,
        "meta_arg_of_pericenter": 308.2985,
        "meta_mean_anomaly": 51.5995,
        "meta_ephemeris_type": 0,
        "meta_classification_type": "U",
        "meta_norad_cat_id": 30317,
        "meta_element_set_no": 999,
        "meta_rev_at_epoch": 96862,
        "meta_bstar": 0.00021669,
        "meta_mean_motion_dot": 3.19e-06,
        "meta_mean_motion_ddot": 0,
        "tle_line1": "1 30317U 99025AAE 25335.99029663  .00000319  00000+0  21669-3 0  9990",
        "tle_line2": "2 30317  98.7864 336.7687 0024340 308.2985  51.5995 14.06938466968628"
      },
      "geometry": {
        "type": "Point",
        "coordinates": [
          157.720128763951,
          3.2483846567796553
        ]
      }
    },
    {
      "type": "Feature",
      "properties": {
        "norad_id": 30320,
        "name": "FENGYUN 1C DEB",
        "group": "fengyun-1c-debris",
        "lat": -24.708193006309322,
        "lon": -148.54041016587652,
        "alt_km": 933.3331591573615,
        "timestamp": "2025-12-02T10:50:47.549597+00:00",
        "meta_object_name": "FENGYUN 1C DEB",
        "meta_object_id": "1999-025AAH",
        "meta_epoch": "2025-12-02T03:08:01.150368",
        "meta_mean_motion": 13.98550047,
        "meta_eccentricity": 0.0085434,
        "meta_inclination": 99.1902,
        "meta_ra_of_asc_node": 35.4095,
        "meta_arg_of_pericenter": 324.099,
        "meta_mean_anomaly": 64.5595,
        "meta_ephemeris_type": 0,
        "meta_classification_type": "U",
        "meta_norad_cat_id": 30320,
        "meta_element_set_no": 999,
        "meta_rev_at_epoch": 96259,
        "meta_bstar": 9.5515e-05,
        "meta_mean_motion_dot": 9.5e-07,
        "meta_mean_motion_ddot": 0,
        "tle_line1": "1 30320U 99025AAH 25336.13056887  .00000095  00000+0  95515-4 0  9992",
        "tle_line2": "2 30320  99.1902  35.4095 0085434 324.0990  64.5595 13.98550047962594"
      },
      "geometry": {
        "type": "Point",
        "coordinates": [
          -148.54041016587652,
          -24.708193006309322
        ]
      }
    },
    {
      "type": "Feature",
      "properties": {
        "norad_id": 30321,
        "name": "FENGYUN 1C DEB",
        "group": "fengyun-1c-debris",
        "lat": -48.67540257278101,
        "lon": -14.254976658419883,
        "alt_km": 812.3582117742444,
        "timestamp": "2025-12-02T10:50:47.549607+00:00",
        "meta_object_name": "FENGYUN 1C DEB",
        "meta_object_id": "1999-025AAJ",
        "meta_epoch": "2025-12-01T23:28:54.300000",
        "meta_mean_motion": 14.16617715,
        "meta_eccentricity": 0.0059822,
        "meta_inclination": 98.6561,
        "meta_ra_of_asc_node": 335.3077,
        "meta_arg_of_pericenter": 268.1797,
        "meta_mean_anomaly": 148.42,
        "meta_ephemeris_type": 0,
        "meta_classification_type": "U",
        "meta_norad_cat_id": 30321,
        "meta_element_set_no": 999,
        "meta_rev_at_epoch": 97391,
        "meta_bstar": 0.00039312,
        "meta_mean_motion_dot": 7.55e-06,
        "meta_mean_motion_ddot": 0,
        "tle_line1": "1 30321U 99025AAJ 25335.97840625  .00000755  00000+0  39312-3 0  9990",
        "tle_line2": "2 30321  98.6561 335.3077 0059822 268.1797 148.4200 14.16617715973917"
      },
      "geometry": {
        "type": "Point",
        "coordinates": [
          -14.254976658419883,
          -48.67540257278101
        ]
      }
    }
  ]
}